OBJECT_NAME,OBJECT_ID,EPOCH,MEAN_MOTION,ECCENTRICITY,INCLINATION,RA_OF_ASC_NODE,ARG_OF_PERICENTER,MEAN_ANOMALY,EPHEMERIS_TYPE,CLASSIFICATION_TYPE,NORAD_CAT_ID,ELEMENT_SET_NO,REV_AT_EPOCH,BSTAR,MEAN_MOTION_DOT,MEAN_MOTION_DDOT
BIRKELAND,2023-001G,2026-06-13T21:32:44.223648,15.40027211,.00083155,97.3354,232.8589,114.5365,245.6748,0,U,55015,999,19184,.29007268E-3,.11517E-3,0
ION SCV-008,2023-001AU,2026-06-13T18:26:29.949216,15.28539407,.00153478,97.5716,261.0289,30.2669,329.9454,0,U,55051,999,19081,.2376427E-3,.6543E-4,0
ION SCV-007,2023-001BD,2026-06-13T17:51:39.165120,14.77550657,.00120922,97.9007,227.8274,353.7793,6.3265,0,U,55060,999,18574,.63162261E-4,.4E-5,0
HUYGENS,2023-001CN,2026-06-13T23:06:25.646112,15.40026731,.00111625,97.3258,232.1582,96.1018,264.1500,0,U,55093,999,19187,.24054718E-3,.9543E-4,0
SHARJAHSAT-1,2023-001CZ,2026-06-13T22:44:18.021120,15.48948226,.00071856,97.3179,233.6685,112.6437,247.5575,0,U,55104,999,19199,.40712104E-3,.21948E-3,0
HORUS 1,2023-025A,2026-06-13T22:25:31.840320,15.23573207,.00023397,97.3470,239.5982,122.0607,238.0858,0,U,55690,999,18355,.25346541E-3,.5993E-4,0
HORUS 2,2023-032A,2026-06-13T23:16:47.176608,15.23396092,.00022329,97.3542,240.4349,108.2732,251.8748,0,U,55844,999,18099,.26351366E-3,.62E-4,0
GLOBAL-19,2023-041B,2026-06-13T20:26:23.328960,15.37956970,.00093727,42.0003,221.3365,340.1634,19.8840,0,U,55982,999,18141,.33063156E-3,.12393E-3,0
BRO-9,2023-054H,2026-06-13T07:56:32.483328,16.01367589,.00073271,97.2935,82.5232,156.5916,203.5698,0,U,56185,999,17847,.12965876E-2,.709651E-2,.23706133E-3
ION SCV-010,2023-054Q,2026-06-13T22:44:04.338816,15.26172027,.00118438,97.3790,54.4903,209.2345,150.8232,0,U,56192,999,17570,.18512411E-3,.472E-4,0
TELEOS-2,2023-057C,2026-06-13T22:57:53.363232,14.96388071,.00001971,9.9880,227.7102,207.0465,152.9738,0,U,56310,999,17231,.30189E-7,.687E-5,0
SNIPE 4,2023-072B,2026-06-13T21:43:16.396032,15.42232960,.00046295,97.5250,10.8070,352.2334,7.8840,0,U,56744,999,16960,.51924736E-3,.22259E-3,0
SNIPE 2,2023-072C,2026-06-13T22:58:38.748288,15.46708140,.00045005,97.5244,13.8823,25.8216,334.3257,0,U,56745,999,16974,.56084671E-3,.28008E-3,0
2023-072G,2023-072G,2026-06-13T23:10:26.313312,15.50409904,.00032036,97.4907,12.6906,19.6099,340.5275,0,U,56749,999,16996,.55794526E-3,.31712E-3,0
GEISAT PRECURSOR,2023-084C,2026-06-13T23:00:29.272896,15.34612220,.0005253,97.6215,305.8054,10.3617,349.7732,0,U,56934,999,16703,.22407699E-3,.7433E-4,0
BLACKJACK ACES-3,2023-084U,2026-06-13T22:35:13.239744,15.18441519,.00028327,97.6205,300.1072,45.0367,315.1096,0,U,56950,999,16667,.26530811E-3,.5394E-4,0
BLACKJACK ACES-2,2023-084Z,2026-06-13T22:44:12.783552,15.18508570,.00011549,97.6201,300.1981,71.6502,288.4857,0,U,56955,999,16668,.32116916E-3,.6557E-4,0
BLACKJACK ACES-1,2023-084AA,2026-06-13T22:27:00.174816,15.18567549,.00012259,97.6190,299.9600,100.9452,259.1920,0,U,56956,999,11640,.35551022E-3,.7279E-4,0
ION SCV-011,2023-084AB,2026-06-13T12:46:00.640704,15.28813316,.0008201,98.1375,351.4731,57.0648,303.1377,0,U,56957,999,16525,.19407E-3,.5351E-4,0
GHOST-3,2023-084AC,2026-06-13T22:20:44.728800,15.47784076,.00056026,97.6205,313.3285,307.7145,52.3596,0,U,56958,999,16751,.33728212E-3,.17422E-3,0
TOMORROW-R2,2023-084AG,2026-06-13T22:20:42.639648,16.05384791,.00082594,97.6042,328.6921,243.5162,116.5272,0,U,56962,999,16853,.67855113E-3,.472435E-2,.10696365E-3
AFR-1,2023-084AJ,2026-06-13T23:01:10.501248,15.28531188,.00102476,97.6267,301.5723,358.6441,1.4769,0,U,56964,999,16673,.17070684E-3,.4666E-4,0
METEOR-M2 3,2023-091A,2026-06-13T22:28:48.101376,14.24046518,.00041764,98.6090,219.9814,163.7099,196.4215,0,U,57166,999,15405,.22959829E-4,.1E-6,0
UMKA 1 (RS40S),2023-091G,2026-06-13T22:27:22.010688,15.20783459,.00141295,97.5056,223.6451,127.7687,232.4831,0,U,57172,999,16351,.28526053E-3,.6232E-4,0
2023-091H,2023-091H,2026-06-13T21:50:16.307808,15.28572107,.00112235,97.5057,228.0751,122.9489,237.2831,0,U,57173,999,16380,.43853863E-3,.12142E-3,0
2023-091J,2023-091J,2026-06-13T22:47:33.979776,15.13907122,.00140617,97.5060,218.0922,153.3059,206.8900,0,U,57174,999,16314,.2341466E-3,.4183E-4,0
CUBEBEL 2 (EU11S),2023-091K,2026-06-13T21:53:06.055296,15.29078932,.00112438,97.5060,228.0992,124.5322,235.6981,0,U,57175,999,16380,.48878453E-3,.13758E-3,0
SITRO-AIS 5 (KATYS),2023-091L,2026-06-13T22:18:31.449024,15.29388150,.00127644,97.5068,228.7977,113.5702,246.6880,0,U,57176,999,16384,.45712768E-3,.1299E-3,0
ZORKIY-2M 1,2023-091M,2026-06-13T22:08:01.629312,15.20864214,.0014685,97.5097,223.8975,125.4140,234.8469,0,U,57177,999,16350,.35530457E-3,.7801E-4,0
CUBESX-HSE 3 (RS42S),2023-091N,2026-06-13T21:45:02.853792,15.31139779,.00121138,97.5101,230.4518,104.8105,255.4478,0,U,57178,999,16392,.45445923E-3,.13631E-3,0
