BIRKELAND               
1 55015U 23001G   26164.89773407  .00011517  00000+0  29007-3 0  9991
2 55015  97.3354 232.8589 0008315 114.5365 245.6748 15.40027211191840
ION SCV-008             
1 55051U 23001AU  26164.76840219  .00006543  00000+0  23764-3 0  9990
2 55051  97.5716 261.0289 0015347  30.2669 329.9454 15.28539407190816
ION SCV-007             
1 55060U 23001BD  26164.74420330  .00000400  00000+0  63162-4 0  9999
2 55060  97.9007 227.8274 0012092 353.7793   6.3265 14.77550657185747
HUYGENS                 
1 55093U 23001CN  26164.96279683  .00009543  00000+0  24055-3 0  9996
2 55093  97.3258 232.1582 0011162  96.1018 264.1500 15.40026731191870
SHARJAHSAT-1            
1 55104U 23001CZ  26164.94743080  .00021948  00000+0  40712-3 0  9995
2 55104  97.3179 233.6685 0007185 112.6437 247.5575 15.48948226191994
HORUS 1                 
1 55690U 23025A   26164.93439630  .00005993  00000+0  25347-3 0  9992
2 55690  97.3470 239.5982 0002339 122.0607 238.0858 15.23573207183551
HORUS 2                 
1 55844U 23032A   26164.96999047  .00006200  00000+0  26351-3 0  9995
2 55844  97.3542 240.4349 0002232 108.2732 251.8748 15.23396092180998
GLOBAL-19               
1 55982U 23041B   26164.85165890  .00012393  00000+0  33063-3 0  9995
2 55982  42.0003 221.3365 0009372 340.1634  19.8840 15.37956970181411
BRO-9                   
1 56185U 23054H   26164.33093152  .00709651  23706-3  12966-2 0  9999
2 56185  97.2935  82.5232 0007327 156.5916 203.5698 16.01367589178472
ION SCV-010             
1 56192U 23054Q   26164.94727244  .00004720  00000+0  18512-3 0  9997
2 56192  97.3790  54.4903 0011843 209.2345 150.8232 15.26172027175701
TELEOS-2                
1 56310U 23057C   26164.95686763  .00000687  00000+0  30189-7 0  9999
2 56310   9.9880 227.7102 0000197 207.0465 152.9738 14.96388071172319
SNIPE 4                 
1 56744U 23072B   26164.90505088  .00022259  00000+0  51925-3 0  9998
2 56744  97.5250  10.8070 0004629 352.2334   7.8840 15.42232960169608
SNIPE 2                 
1 56745U 23072C   26164.95739292  .00028008  00000+0  56085-3 0  9990
2 56745  97.5244  13.8823 0004500  25.8216 334.3257 15.46708140169748
2023-072G               
1 56749U 23072G   26164.96558233  .00031712  00000+0  55795-3 0  9992
2 56749  97.4907  12.6906 0003203  19.6099 340.5275 15.50409904169969
GEISAT PRECURSOR        
1 56934U 23084C   26164.95867214  .00007433  00000+0  22408-3 0  9990
2 56934  97.6215 305.8054 0005253  10.3617 349.7732 15.34612220167035
BLACKJACK ACES-3        
1 56950U 23084U   26164.94112546  .00005394  00000+0  26531-3 0  9993
2 56950  97.6205 300.1072 0002832  45.0367 315.1096 15.18441519166679
BLACKJACK ACES-2        
1 56955U 23084Z   26164.94737018  .00006557  00000+0  32117-3 0  9994
2 56955  97.6201 300.1981 0001154  71.6502 288.4857 15.18508570166680
BLACKJACK ACES-1        
1 56956U 23084AA  26164.93541869  .00007279  00000+0  35551-3 0  9998
2 56956  97.6190 299.9600 0001225 100.9452 259.1920 15.18567549116402
ION SCV-011             
1 56957U 23084AB  26164.53195186  .00005351  00000+0  19407-3 0  9993
2 56957  98.1375 351.4731 0008201  57.0648 303.1377 15.28813316165253
GHOST-3                 
1 56958U 23084AC  26164.93107325  .00017422  00000+0  33728-3 0  9990
2 56958  97.6205 313.3285 0005602 307.7145  52.3596 15.47784076167518
TOMORROW-R2             
1 56962U 23084AG  26164.93104907  .00472435  10696-3  67855-3 0  9991
2 56962  97.6042 328.6921 0008259 243.5162 116.5272 16.05384791168537
AFR-1                   
1 56964U 23084AJ  26164.95914932  .00004666  00000+0  17071-3 0  9998
2 56964  97.6267 301.5723 0010247 358.6441   1.4769 15.28531188166737
METEOR-M2 3             
1 57166U 23091A   26164.93666784  .00000010  00000+0  22960-4 0  9991
2 57166  98.6090 219.9814 0004176 163.7099 196.4215 14.24046518154054
UMKA 1 (RS40S)          
1 57172U 23091G   26164.93567142  .00006232  00000+0  28526-3 0  9991
2 57172  97.5056 223.6451 0014129 127.7687 232.4831 15.20783459163517
2023-091H               
1 57173U 23091H   26164.90991097  .00012142  00000+0  43854-3 0  9997
2 57173  97.5057 228.0751 0011223 122.9489 237.2831 15.28572107163809
2023-091J               
1 57174U 23091J   26164.94969884  .00004183  00000+0  23415-3 0  9998
2 57174  97.5060 218.0922 0014061 153.3059 206.8900 15.13907122163146
CUBEBEL 2 (EU11S)       
1 57175U 23091K   26164.91187564  .00013758  00000+0  48878-3 0  9991
2 57175  97.5060 228.0992 0011243 124.5322 235.6981 15.29078932163804
SITRO-AIS 5 (KATYS)     
1 57176U 23091L   26164.92953066  .00012990  00000+0  45713-3 0  9993
2 57176  97.5068 228.7977 0012764 113.5702 246.6880 15.29388150163842
ZORKIY-2M 1             
1 57177U 23091M   26164.92224108  .00007801  00000+0  35530-3 0  9993
2 57177  97.5097 223.8975 0014685 125.4140 234.8469 15.20864214163507
CUBESX-HSE 3 (RS42S)    
1 57178U 23091N   26164.90628303  .00013631  00000+0  45446-3 0  9992
2 57178  97.5101 230.4518 0012113 104.8105 255.4478 15.31139779163925
